{
    "links": {
        "self": "http://www.neowsapp.com/rest/v1/neo/3313730?api_key=iIulBulltgU6a56xZRHN4H3l9WmuAYTsLGpBGhQ2"
    },
    "id": "3313730",
    "neo_reference_id": "3313730",
    "name": "(2006 BW7)",
    "designation": "2006 BW7",
    "nasa_jpl_url": "http://ssd.jpl.nasa.gov/sbdb.cgi?sstr=3313730",
    "absolute_magnitude_h": 26.5,
    "estimated_diameter": {
        "kilometers": {
            "estimated_diameter_min": 0.0133215567,
            "estimated_diameter_max": 0.0297879063
        },
        "meters": {
            "estimated_diameter_min": 13.3215566698,
            "estimated_diameter_max": 29.7879062798
        },
        "miles": {
            "estimated_diameter_min": 0.008277629,
            "estimated_diameter_max": 0.0185093411
        },
        "feet": {
            "estimated_diameter_min": 43.7058959846,
            "estimated_diameter_max": 97.7293544391
        }
    },
    "is_potentially_hazardous_asteroid": false,
    "close_approach_data": [
        {
            "close_approach_date": "2005-08-24",
            "close_approach_date_full": "2005-Aug-24 11:50",
            "epoch_date_close_approach": 1124884200000,
            "relative_velocity": {
                "kilometers_per_second": "5.2292795594",
                "kilometers_per_hour": "18825.406413672",
                "miles_per_hour": "11697.3754463175"
            },
            "miss_distance": {
                "astronomical": "0.4671375238",
                "lunar": "181.7164967582",
                "kilometers": "69882778.557554306",
                "miles": "43423145.0376731828"
            },
            "orbiting_body": "Earth"
        },
        {
            "close_approach_date": "2006-01-15",
            "close_approach_date_full": "2006-Jan-15 16:07",
            "epoch_date_close_approach": 1137341220000,
            "relative_velocity": {
                "kilometers_per_second": "9.4105855119",
                "kilometers_per_hour": "33878.1078429493",
                "miles_per_hour": "21050.538731637"
            },
            "miss_distance": {
                "astronomical": "0.0055002312",
                "lunar": "2.1395899368",
                "kilometers": "822822.872027544",
                "miles": "511278.4243823472"
            },
            "orbiting_body": "Earth"
        },
        {
            "close_approach_date": "2006-01-16",
            "close_approach_date_full": "2006-Jan-16 02:20",
            "epoch_date_close_approach": 1137378000000,
            "relative_velocity": {
                "kilometers_per_second": "9.416450642",
                "kilometers_per_hour": "33899.2223111482",
                "miles_per_hour": "21063.6584410576"
            },
            "miss_distance": {
                "astronomical": "0.0051797624",
                "lunar": "2.0149275736",
                "kilometers": "774881.422146088",
                "miles": "481488.9887804944"
            },
            "orbiting_body": "Moon"
        }
    ],
    "orbital_data": {
        "orbit_id": "8",
        "orbit_determination_date": "2017-04-06 09:09:21",
        "first_observation_date": "2006-01-22",
        "last_observation_date": "2006-01-27",
        "data_arc_in_days": 5,
        "observations_used": 23,
        "orbit_uncertainty": "8",
        "minimum_orbit_intersection": ".00438704",
        "jupiter_tisserand_invariant": "4.491",
        "epoch_osculation": "2453760.5",
        "eccentricity": ".410031454939458",
        "semi_major_axis": "1.47883602960312",
        "inclination": "1.372771712995505",
        "ascending_node_longitude": "305.4889317479843",
        "orbital_period": "656.8685384879586",
        "perihelion_distance": ".8724667407680614",
        "perihelion_argument": "116.9482397400066",
        "aphelion_distance": "2.085205318438179",
        "perihelion_time": "2453711.280258427480",
        "mean_anomaly": "26.9751189589544",
        "mean_motion": ".5480548677649894",
        "equinox": "J2000",
        "orbit_class": {
            "orbit_class_type": "APO",
            "orbit_class_description": "Near-Earth asteroid orbits which cross the Earth’s orbit similar to that of 1862 Apollo",
            "orbit_class_range": "a (semi-major axis) > 1.0 AU; q (perihelion) < 1.017 AU"
        }
    },
    "is_sentry_object": false
}